{
    "links": {
        "self": "http://www.neowsapp.com/rest/v1/neo/3675116?api_key=iIulBulltgU6a56xZRHN4H3l9WmuAYTsLGpBGhQ2"
    },
    "id": "3675116",
    "neo_reference_id": "3675116",
    "name": "(2014 MG68)",
    "designation": "2014 MG68",
    "nasa_jpl_url": "http://ssd.jpl.nasa.gov/sbdb.cgi?sstr=3675116",
    "absolute_magnitude_h": 22.988,
    "estimated_diameter": {
        "kilometers": {
            "estimated_diameter_min": 0.0671359249,
            "estimated_diameter_max": 0.1501204919
        },
        "meters": {
            "estimated_diameter_min": 67.1359249374,
            "estimated_diameter_max": 150.1204918924
        },
        "miles": {
            "estimated_diameter_min": 0.0417163168,
            "estimated_diameter_max": 0.0932805202
        },
        "feet": {
            "estimated_diameter_min": 220.2622279717,
            "estimated_diameter_max": 492.5213146203
        }
    },
    "is_potentially_hazardous_asteroid": false,
    "close_approach_data": [
        {
            "close_approach_date": "2014-07-05",
            "close_approach_date_full": "2014-Jul-05 19:37",
            "epoch_date_close_approach": 1404589020000,
            "relative_velocity": {
                "kilometers_per_second": "14.8640883654",
                "kilometers_per_hour": "53510.7181152665",
                "miles_per_hour": "33249.4792644554"
            },
            "miss_distance": {
                "astronomical": "0.1217981821",
                "lunar": "47.3794928369",
                "kilometers": "18220748.612032127",
                "miles": "11321848.1864402726"
            },
            "orbiting_body": "Earth"
        }
    ],
    "orbital_data": {
        "orbit_id": "3",
        "orbit_determination_date": "2017-04-06 08:39:44",
        "first_observation_date": "2014-06-28",
        "last_observation_date": "2014-06-29",
        "data_arc_in_days": 1,
        "observations_used": 6,
        "orbit_uncertainty": "9",
        "minimum_orbit_intersection": ".012613",
        "jupiter_tisserand_invariant": "3.436",
        "epoch_osculation": "2456837.5",
        "eccentricity": ".5782940138553041",
        "semi_major_axis": "2.187787187108567",
        "inclination": "1.850631167241099",
        "ascending_node_longitude": "274.0129970972872",
        "orbital_period": "1181.968870461567",
        "perihelion_distance": ".9226029532143486",
        "perihelion_argument": "64.32801423348185",
        "aphelion_distance": "3.452971421002785",
        "perihelion_time": "2456882.230320552123",
        "mean_anomaly": "346.3761933150778",
        "mean_motion": ".3045765493463609",
        "equinox": "J2000",
        "orbit_class": {
            "orbit_class_type": "APO",
            "orbit_class_description": "Near-Earth asteroid orbits which cross the Earth’s orbit similar to that of 1862 Apollo",
            "orbit_class_range": "a (semi-major axis) > 1.0 AU; q (perihelion) < 1.017 AU"
        }
    },
    "is_sentry_object": false
}